STARLINK-2103           
1 47383U 21005AL  26164.33335648  .00067173  00000+0  19582-2 0  9997
2 47383  53.1586 288.9480 0002706 326.2421 116.7421 15.34771348  5931
STARLINK-2104           
1 47384U 21005AM  26163.70719776  .00007654  00000+0  27005-3 0  9994
2 47384  53.1600 315.3554 0001167  86.6305 273.4830 15.30228223297937
STARLINK-2105           
1 47385U 21005AN  26163.70226481  .00001407  00000+0  57093-4 0  9992
2 47385  53.1609 315.1017 0001084  85.6540 274.4586 15.31706590297935
STARLINK-2106           
1 47386U 21005AP  26164.14757032  .00004242  00000+0  15530-3 0  9992
2 47386  53.1606 313.2985 0001117  78.9891 281.1235 15.30192473298000
STARLINK-2109           
1 47388U 21005AR  26163.78411154 -.00000417  00000+0 -16696-5 0  9993
2 47388  53.1599 343.9071 0000970  15.2918 344.8113 15.31704154297534
STARLINK-2110           
1 47389U 21005AS  26164.11702253  .00007830  00000+0  26372-3 0  9999
2 47389  53.1578 312.8140 0001166  75.7597 284.3534 15.31711871298019
STARLINK-2111           
1 47390U 21005AT  26164.21756603  .00001049  00000+0  45562-4 0  9999
2 47390  53.1613 341.9475 0001253  85.1298 274.9846 15.31701794297603
STARLINK-2112           
1 47391U 21005AU  26164.13521422  .00018661  00000+0  10922-2 0  9998
2 47391  53.0681 321.2048 0000576 165.4179 194.6830 15.11886958297876
STARLINK-2113           
1 47392U 21005AV  26164.33335648  .00181248  00000+0  73787-3 0  9995
2 47392  53.0431 263.6577 0002561   9.1375  73.7057 15.85157631  5790
STARLINK-2114           
1 47393U 21005AW  26164.06027613  .02440925  11885-4  10675-2 0  9992
2 47393  53.0197 223.9827 0011341 339.3210  20.7368 16.21614674299225
STARLINK-2119           
1 47397U 21005BA  26164.25605627  .00044002  00000+0  13132-2 0  9991
2 47397  53.1590 337.9065 0000906 292.7026  67.3880 15.34222649297672
STARLINK-2121           
1 47399U 21005BC  26164.12168495 -.00000348  00000+0  54099-6 0  9993
2 47399  53.1614 312.7567 0001269  94.7913 265.3234 15.31696302298017
STARLINK-2122           
1 47400U 21005BD  26164.05132119 -.00001213  00000+0 -27358-4 0  9991
2 47400  53.1615 289.9153 0001201  91.8224 268.2915 15.31686812298334
STARLINK-2123           
1 47401U 21005BE  26163.64632159  .00000229  00000+0  19135-4 0  9993
2 47401  53.1618 315.2298 0001034  88.6129 271.4991 15.31696880297934
STARLINK-2128           
1 47404U 21005BH  26164.33335648  .00213373  00000+0  82017-3 0  9990
2 47404  53.0397 261.8552 0004952 337.0933 110.4951 15.86246554  6019
STARLINK-2130           
1 47405U 21005BJ  26164.17942162 -.00000299  00000+0  21178-5 0  9993
2 47405  53.1585 338.2182 0000957  88.3648 271.7463 15.31705286297651
STARLINK-2134           
1 47407U 21005BL  26164.26211505  .00010837  00000+0  36046-3 0  9991
2 47407  53.1586 314.2016 0001092  82.5072 277.6054 15.31700263297990
STARLINK-2135           
1 47408U 21005BM  26164.13572751  .00001103  00000+0  47296-4 0  9997
2 47408  53.1600 313.1818 0001015  82.3286 277.7831 15.31704023298001
STARLINK-1954           
1 47555U 21009H   26163.58505001  .00055246  00000+0  13259-2 0  9993
2 47555  53.0523 284.4612 0000932 337.7695  22.3268 15.40857576295543
STARLINK-1958           
1 47559U 21009M   26164.07382076  .01352967  11364-2  17397-2 0  9993
2 47559  53.0281 202.5042 0001175  71.9777 288.1383 16.06861059296729
STARLINK-1962           
1 47563U 21009R   26164.33335648  .00276876  39788-4  83770-3 0  9994
2 47563  53.0362 241.2877 0003021  10.9617 299.3466 15.91685384  6013
STARLINK-1964           
1 47565U 21009T   26164.33335648  .00426635  88368-4  84349-3 0  9997
2 47565  53.0319 209.6344 0010568 343.7350  69.4258 15.99354256  6035
STARLINK-1967           
1 47568U 21009W   26164.33335648  .00150619  00000+0  59558-3 0  9992
2 47568  53.0387 250.2933 0002511  18.1793 240.9029 15.85851544  6064
STARLINK-1991           
1 47587U 21009AR  26164.29707505  .00484686  11385-3  88699-3 0  9997
2 47587  53.0316 213.3257 0011861 356.6086   3.4861 16.00658544296597
STARLINK-1994           
1 47589U 21009AT  26164.33335648  .00055281  00000+0  28903-3 0  9994
2 47589  53.0399 251.3724 0002668  20.0164  40.3590 15.80315654  6042
STARLINK-1995           
1 47590U 21009AU  26164.33335648  .00101544  00000+0  53957-3 0  9997
2 47590  53.0386 268.8811 0002424  13.9321 277.9019 15.79719590  5932
STARLINK-1997           
1 47592U 21009AW  26164.33335648  .00359087  62727-4  85783-3 0  9997
2 47592  53.0279 242.0970 0011975 351.8710 172.1690 15.95952696  6039
STARLINK-2001           
1 47596U 21009BA  26163.62420339  .00076571  00000+0  68177-3 0  9997
2 47596  53.0410 279.1105 0000591  86.1279 273.9804 15.67822628295612
STARLINK-2021           
1 47604U 21009BJ  26164.33335648  .00349148  59786-4  83955-3 0  9998
2 47604  53.0298 217.9574 0010281   5.6888  33.1279 15.95873856  6088
STARLINK-1609           
1 47621U 21012B   26163.76227056  .00071391  00000+0  14317-2 0  9997
2 47621  53.1573 337.2357 0001866 206.0002 154.0913 15.46079427294730
STARLINK-1655           
1 47623U 21012D   26164.33335648  .00403678  77967-4  90483-3 0  9997
2 47623  53.0272 208.5260 0002791  29.3129  82.7088 15.97228238  5972
STARLINK-1704           
1 47625U 21012F   26163.73501229  .00062706  00000+0  80861-3 0  9993
2 47625  53.0470 326.0963 0003654 186.3109 173.7858 15.58428540294859
STARLINK-1972           
1 47627U 21012H   26164.00002315  .00106047  00000+0  10790-2 0  9998
2 47627  53.0454 223.5606 0004346 333.2611 349.5461 15.64344716  5962
STARLINK-1973           
1 47628U 21012J   26164.29195430  .00006451  00000+0  21938-3 0  9996
2 47628  53.1591 340.2591 0001192  97.2289 262.8848 15.31711438294734
STARLINK-1983           
1 47630U 21012L   26164.15800062  .00012534  00000+0  41413-3 0  9997
2 47630  53.1592 325.4588 0001343  75.9063 284.2088 15.31767136294909
STARLINK-1992           
1 47632U 21012N   26163.51446022  .00002470  00000+0  91309-4 0  9998
2 47632  53.1601 251.5812 0001213  96.2281 263.8858 15.31712015295887
STARLINK-2015           
1 47638U 21012U   26163.52580723  .00056952  00000+0  16183-2 0  9991
2 47638  53.1571 250.7741 0004906 333.5030  26.5722 15.35642184295890
STARLINK-2019           
1 47641U 21012X   26164.24620189  .00143575  00000+0  72602-3 0  9993
2 47641  53.0369 191.1497 0008223  10.1132 350.0053 15.80613576296774
STARLINK-2031           
1 47648U 21012AE  26164.18133796  .00000467  00000+0  26799-4 0  9995
2 47648  53.1606 325.3082 0001030  95.4689 264.6430 15.31707148294939
STARLINK-2032           
1 47649U 21012AF  26164.33335648  .00235282  31133-4  79691-3 0  9992
2 47649  53.0324 256.9760 0009718   2.5108 299.4237 15.89443363  6070
STARLINK-2033           
1 47650U 21012AG  26163.73216173  .00072952  00000+0  17212-2 0  9995
2 47650  53.1503 323.9834 0002523 177.4872 182.6147 15.41249232294895
STARLINK-2036           
1 47652U 21012AJ  26164.33335648  .00378778  00000+0  40171-2 0  9998
2 47652  53.1590 326.3580 0000961  60.5587 194.1603 15.62338957  5999
STARLINK-2039           
1 47655U 21012AM  26163.77928006 -.00000498  00000+0 -42825-5 0  9998
2 47655  53.1592 342.6952 0000926  59.7001 300.4092 15.31702481294650
STARLINK-2040           
1 47656U 21012AN  26164.17667587  .00000788  00000+0  37141-4 0  9992
2 47656  53.1623 325.3191 0001220  86.6956 273.4185 15.31707043294926
STARLINK-2041           
1 47657U 21012AP  26164.00002315  .00095523  00000+0  54677-3 0  9990
2 47657  53.1525 318.5499 0005015 292.7367 147.9203 15.78085394  5953
STARLINK-2083           
1 47676U 21012BJ  26164.33335648  .00102129  00000+0  52628-3 0  9990
2 47676  53.0394 169.7373 0008116  29.8097 211.2364 15.80349399  6065
STARLINK-2068           
1 47722U 21017A   26164.09923068  .00004762  00000+0  16501-3 0  9993
2 47722  53.1604 107.1693 0001489 100.1867 259.9303 15.31721257292698
STARLINK-2107           
1 47723U 21017B   26163.93874386  .00001625  00000+0  64077-4 0  9991
2 47723  53.1610  43.6086 0000842  83.8005 276.3092 15.31717283293535
STARLINK-2131           
1 47728U 21017G   26164.09559590  .00065048  00000+0  12471-2 0  9999
2 47728  53.0711 112.8955 0006836  63.4882 296.6825 15.47402674292597
STARLINK-2140           
1 47730U 21017J   26164.18929117  .00010808  00000+0  35904-3 0  9999
2 47730  53.1590 132.7101 0001241  89.7300 270.3843 15.31743360292289
STARLINK-2141           
1 47731U 21017K   26164.33335648  .00242754  00000+0  10044-2 0  9991
2 47731  53.1525  99.9173 0001826 167.8549 168.0530 15.84654548  5918
STARLINK-2143           
1 47733U 21017M   26164.17995636  .00017626  00000+0  57837-3 0  9994
2 47733  53.1584 132.4761 0001372  78.0383 282.0772 15.31701214292341
STARLINK-2144           
1 47734U 21017N   26164.11628929  .00011565  00000+0  38360-3 0  9993
2 47734  53.1572 119.9802 0001399  99.6381 260.4778 15.31721171292486
STARLINK-2147           
1 47736U 21017Q   26164.30501190  .00044515  00000+0  94432-3 0  9999
2 47736  53.0714 113.4663 0004901  58.7852 301.3634 15.44629067292605
STARLINK-2150           
1 47739U 21017T   26164.24152285  .00000386  00000+0  24198-4 0  9993
2 47739  53.1596 134.7058 0001412  84.8072 275.3091 15.31723386292320
STARLINK-2156           
1 47742U 21017W   26164.11430518  .00003668  00000+0  12982-3 0  9994
2 47742  53.1586 110.2479 0001163  96.9504 263.1629 15.31718674292658
STARLINK-2159           
1 47745U 21017Z   26164.13778149  .00087715  00000+0  11043-2 0  9995
2 47745  53.1533 106.4321 0006192  64.6427 295.5227 15.58909876292657
STARLINK-2160           
1 47746U 21017AA  26164.27906213  .00034946  00000+0  69056-3 0  9992
2 47746  53.1559 113.8901 0006075  64.4505 295.7131 15.46813184292555
STARLINK-2161           
1 47747U 21017AB  26164.10961350  .00004748  00000+0  16459-3 0  9994
2 47747  53.1588 110.0085 0001218  82.4003 277.7137 15.31713458292639
